{
  "type": "FeatureCollection",
  "features": [
    {
      "type": "Feature",
      "properties": {
        "norad_id": 67105,
        "name": "STARLINK-36261",
        "group": "last-30-days",
        "lat": -42.90853830518469,
        "lon": 130.8866243051438,
        "alt_km": 349.2337809904275,
        "timestamp": "2025-12-27T17:24:56.109340+00:00",
        "meta_object_name": "STARLINK-36261",
        "meta_object_id": "2025-299D",
        "meta_epoch": "2025-12-27T12:00:02.000160",
        "meta_mean_motion": 15.7505956,
        "meta_eccentricity": 0.0001865,
        "meta_inclination": 42.999,
        "meta_ra_of_asc_node": 226.2524,
        "meta_arg_of_pericenter": 265.6968,
        "meta_mean_anomaly": 160.8519,
        "meta_ephemeris_type": 0,
        "meta_classification_type": "U",
        "meta_norad_cat_id": 67105,
        "meta_element_set_no": 999,
        "meta_rev_at_epoch": 318,
        "meta_bstar": -0.014351,
        "meta_mean_motion_dot": -0.01916801,
        "meta_mean_motion_ddot": 0,
        "tle_line1": "1 67105U 25299D   25361.50002315 -.01916801  00000+0 -14351-1 0  9991",
        "tle_line2": "2 67105  42.9990 226.2524 0001865 265.6968 160.8519 15.75059560  3184"
      },
      "geometry": {
        "type": "Point",
        "coordinates": [
          130.8866243051438,
          -42.90853830518469
        ]
      }
    },
    {
      "type": "Feature",
      "properties": {
        "norad_id": 67106,
        "name": "STARLINK-36259",
        "group": "last-30-days",
        "lat": -42.97590142053876,
        "lon": 135.57650545086176,
        "alt_km": 349.3530809738695,
        "timestamp": "2025-12-27T17:24:56.109350+00:00",
        "meta_object_name": "STARLINK-36259",
        "meta_object_id": "2025-299E",
        "meta_epoch": "2025-12-27T12:00:02.000160",
        "meta_mean_motion": 15.75075129,
        "meta_eccentricity": 0.0001644,
        "meta_inclination": 42.9989,
        "meta_ra_of_asc_node": 226.2435,
        "meta_arg_of_pericenter": 261.1949,
        "meta_mean_anomaly": 168.7819,
        "meta_ephemeris_type": 0,
        "meta_classification_type": "U",
        "meta_norad_cat_id": 67106,
        "meta_element_set_no": 999,
        "meta_rev_at_epoch": 318,
        "meta_bstar": -0.014286,
        "meta_mean_motion_dot": -0.01910181,
        "meta_mean_motion_ddot": 0,
        "tle_line1": "1 67106U 25299E   25361.50002315 -.01910181  00000+0 -14286-1 0  9994",
        "tle_line2": "2 67106  42.9989 226.2435 0001644 261.1949 168.7819 15.75075129  3188"
      },
      "geometry": {
        "type": "Point",
        "coordinates": [
          135.57650545086176,
          -42.97590142053876
        ]
      }
    },
    {
      "type": "Feature",
      "properties": {
        "norad_id": 67107,
        "name": "STARLINK-36196",
        "group": "last-30-days",
        "lat": -42.96517681392636,
        "lon": 133.1542154210009,
        "alt_km": 349.2609563616661,
        "timestamp": "2025-12-27T17:24:56.109360+00:00",
        "meta_object_name": "STARLINK-36196",
        "meta_object_id": "2025-299F",
        "meta_epoch": "2025-12-27T12:00:02.000160",
        "meta_mean_motion": 15.75074898,
        "meta_eccentricity": 0.000178,
        "meta_inclination": 42.999,
        "meta_ra_of_asc_node": 226.2483,
        "meta_arg_of_pericenter": 265.5926,
        "meta_mean_anomaly": 162.6109,
        "meta_ephemeris_type": 0,
        "meta_classification_type": "U",
        "meta_norad_cat_id": 67107,
        "meta_element_set_no": 999,
        "meta_rev_at_epoch": 318,
        "meta_bstar": -0.014389,
        "meta_mean_motion_dot": -0.01922176,
        "meta_mean_motion_ddot": 0,
        "tle_line1": "1 67107U 25299F   25361.50002315 -.01922176  00000+0 -14389-1 0  9996",
        "tle_line2": "2 67107  42.9990 226.2483 0001780 265.5926 162.6109 15.75074898  3185"
      },
      "geometry": {
        "type": "Point",
        "coordinates": [
          133.1542154210009,
          -42.96517681392636
        ]
      }
    },
    {
      "type": "Feature",
      "properties": {
        "norad_id": 67108,
        "name": "STARLINK-36208",
        "group": "last-30-days",
        "lat": -42.935830517947316,
        "lon": 137.987814144673,
        "alt_km": 349.37769047429174,
        "timestamp": "2025-12-27T17:24:56.109372+00:00",
        "meta_object_name": "STARLINK-36208",
        "meta_object_id": "2025-299G",
        "meta_epoch": "2025-12-27T12:00:02.000160",
        "meta_mean_motion": 15.75081512,
        "meta_eccentricity": 0.0001588,
        "meta_inclination": 42.999,
        "meta_ra_of_asc_node": 226.2389,
        "meta_arg_of_pericenter": 260.8248,
        "meta_mean_anomaly": 170.917,
        "meta_ephemeris_type": 0,
        "meta_classification_type": "U",
        "meta_norad_cat_id": 67108,
        "meta_element_set_no": 999,
        "meta_rev_at_epoch": 318,
        "meta_bstar": -0.014263,
        "meta_mean_motion_dot": -0.01907967,
        "meta_mean_motion_ddot": 0,
        "tle_line1": "1 67108U 25299G   25361.50002315 -.01907967  00000+0 -14263-1 0  9999",
        "tle_line2": "2 67108  42.9990 226.2389 0001588 260.8248 170.9170 15.75081512  3183"
      },
      "geometry": {
        "type": "Point",
        "coordinates": [
          137.987814144673,
          -42.935830517947316
        ]
      }
    },
    {
      "type": "Feature",
      "properties": {
        "norad_id": 67109,
        "name": "STARLINK-35764",
        "group": "last-30-days",
        "lat": -42.83887198880209,
        "lon": 140.5234386616284,
        "alt_km": 349.2131518496062,
        "timestamp": "2025-12-27T17:24:56.109382+00:00",
        "meta_object_name": "STARLINK-35764",
        "meta_object_id": "2025-299H",
        "meta_epoch": "2025-12-27T12:00:02.000160",
        "meta_mean_motion": 15.7508236,
        "meta_eccentricity": 0.0001781,
        "meta_inclination": 42.9992,
        "meta_ra_of_asc_node": 226.2351,
        "meta_arg_of_pericenter": 268.858,
        "meta_mean_anomaly": 164.7515,
        "meta_ephemeris_type": 0,
        "meta_classification_type": "U",
        "meta_norad_cat_id": 67109,
        "meta_element_set_no": 999,
        "meta_rev_at_epoch": 307,
        "meta_bstar": -0.014256,
        "meta_mean_motion_dot": -0.0190735,
        "meta_mean_motion_ddot": 0,
        "tle_line1": "1 67109U 25299H   25361.50002315 -.01907350  00000+0 -14256-1 0  9998",
        "tle_line2": "2 67109  42.9992 226.2351 0001781 268.8580 164.7515 15.75082360  3071"
      },
      "geometry": {
        "type": "Point",
        "coordinates": [
          140.5234386616284,
          -42.83887198880209
        ]
      }
    },
    {
      "type": "Feature",
      "properties": {
        "norad_id": 67110,
        "name": "STARLINK-35781",
        "group": "last-30-days",
        "lat": -42.48725794470169,
        "lon": 145.45008724444688,
        "alt_km": 349.2766270907978,
        "timestamp": "2025-12-27T17:24:56.109392+00:00",
        "meta_object_name": "STARLINK-35781",
        "meta_object_id": "2025-299J",
        "meta_epoch": "2025-12-27T12:00:02.000160",
        "meta_mean_motion": 15.75098919,
        "meta_eccentricity": 0.0001676,
        "meta_inclination": 42.999,
        "meta_ra_of_asc_node": 226.2254,
        "meta_arg_of_pericenter": 263.9403,
        "meta_mean_anomaly": 173.3071,
        "meta_ephemeris_type": 0,
        "meta_classification_type": "U",
        "meta_norad_cat_id": 67110,
        "meta_element_set_no": 999,
        "meta_rev_at_epoch": 313,
        "meta_bstar": -0.014337,
        "meta_mean_motion_dot": -0.01917885,
        "meta_mean_motion_ddot": 0,
        "tle_line1": "1 67110U 25299J   25361.50002315 -.01917885  00000+0 -14337-1 0  9994",
        "tle_line2": "2 67110  42.9990 226.2254 0001676 263.9403 173.3071 15.75098919  3133"
      },
      "geometry": {
        "type": "Point",
        "coordinates": [
          145.45008724444688,
          -42.48725794470169
        ]
      }
    },
    {
      "type": "Feature",
      "properties": {
        "norad_id": 67111,
        "name": "STARLINK-35875",
        "group": "last-30-days",
        "lat": -42.68540640667291,
        "lon": 143.04871331720895,
        "alt_km": 349.3247454626071,
        "timestamp": "2025-12-27T17:24:56.109403+00:00",
        "meta_object_name": "STARLINK-35875",
        "meta_object_id": "2025-299K",
        "meta_epoch": "2025-12-27T12:00:02.000160",
        "meta_mean_motion": 15.75092534,
        "meta_eccentricity": 0.0001644,
        "meta_inclination": 42.9989,
        "meta_ra_of_asc_node": 226.2298,
        "meta_arg_of_pericenter": 262.5828,
        "meta_mean_anomaly": 172.8851,
        "meta_ephemeris_type": 0,
        "meta_classification_type": "U",
        "meta_norad_cat_id": 67111,
        "meta_element_set_no": 999,
        "meta_rev_at_epoch": 307,
        "meta_bstar": -0.014351,
        "meta_mean_motion_dot": -0.01918965,
        "meta_mean_motion_ddot": 0,
        "tle_line1": "1 67111U 25299K   25361.50002315 -.01918965  00000+0 -14351-1 0  9991",
        "tle_line2": "2 67111  42.9989 226.2298 0001644 262.5828 172.8851 15.75092534  3071"
      },
      "geometry": {
        "type": "Point",
        "coordinates": [
          143.04871331720895,
          -42.68540640667291
        ]
      }
    }
  ]
}